COSMOS 2425 (716)       
1 29670U 06062A   20179.51569212 -.00000006  00000-0  00000-0 0  9995
2 29670  64.9535 267.4520 0022908 342.2153  20.3594  2.13107452105111
COSMOS 2433 (720)       
1 32275U 07052A   20180.21371421 -.00000042  00000-0  10000-3 0  9996
2 32275  65.9829  28.5639 0000800 249.4716 113.9316  2.13104280 98646
COSMOS 2432 (719)       
1 32276U 07052B   20179.81150313 -.00000042  00000-0  10000-3 0  9996
2 32276  65.9970  28.6646 0009837 340.4579  24.5691  2.13103794 98632
COSMOS 2434 (721)       
1 32393U 07065A   20180.20256431 -.00000009  00000-0  00000+0 0  9991
2 32393  64.5693 266.0509 0003101 115.6764 126.8037  2.13103156 97340
COSMOS 2436 (723)       
1 32395U 07065C   20179.80984375 -.00000007  00000-0  10000-3 0  9995
2 32395  64.5782 266.1143 0013133 359.0083  78.4307  2.13103105 97278
COSMOS 2456 (730)       
1 36111U 09070A   20180.53884684  .00000076  00000-0  00000+0 0  9997
2 36111  64.2317 145.7120 0006284 305.2700   8.6421  2.13102997 82010
COSMOS 2457 (733)       
1 36112U 09070B   20180.10943951  .00000078  00000-0  00000-0 0  9997
2 36112  64.2135 145.6202 0004663 195.3181 272.3754  2.13101562 82015
COSMOS 2459 (731)       
1 36400U 10007A   20180.15813237 -.00000042  00000-0  10000-3 0  9993
2 36400  65.8844  27.5348 0025554 354.5431 181.6926  2.13105325 80367
COSMOS 2461 (735)       
1 36401U 10007B   20180.28360350 -.00000042  00000-0  10000-3 0  9991
2 36401  65.8836  27.4970 0009019  68.8795 111.5786  2.13102186 80363
COSMOS 2460 (732)       
1 36402U 10007C   20179.95482972 -.00000042  00000-0  10000-3 0  9999
2 36402  65.8654  27.4696 0002078  98.0459 229.2725  2.13101484 80356
COSMOS 2464 (736)       
1 37139U 10041C   20179.69055259 -.00000006  00000-0  00000-0 0  9996
2 37139  64.1711 265.5026 0025309  10.7286  62.4816  2.13100782 76424
COSMOS 2471 (701K)      
1 37372U 11009A   20180.02113747 -.00000042  00000-0  00000+0 0  9995
2 37372  65.8652  27.4086 0007573 222.9624 315.2687  2.13107491 72630
COSMOS 2476 (744)       
1 37867U 11064A   20180.49334583  .00000078  00000-0  00000+0 0  9997
2 37867  64.5301 146.7876 0021507 242.9981 296.9605  2.13101940 67361
COSMOS 2477 (745)       
1 37868U 11064B   20180.40490854  .00000079  00000-0  00000+0 0  9994
2 37868  64.5382 146.8466 0019102 244.6190  45.9927  2.13101874 67316
COSMOS 2475 (743)       
1 37869U 11064C   20180.00070222  .00000081  00000-0  00000-0 0  9998
2 37869  64.5463 146.8622 0023454 263.3985  34.5026  2.13102155 67313
COSMOS 2485 (747)       
1 39155U 13019A   20180.13619711  .00000081  00000-0  00000-0 0  9996
2 39155  64.6977 147.0709 0021878 238.7012  71.8320  2.13102020 55823
COSMOS 2492 (754)       
1 39620U 14012A   20180.32389998 -.00000042  00000-0  10000-3 0  9991
2 39620  65.7563  27.2374 0012836 333.9104 155.6899  2.13103389 48782
COSMOS 2500 (755)       
1 40001U 14032A   20179.79675990 -.00000042  00000-0  00000-0 0  9993
2 40001  65.6992  27.1707 0005244 186.9955 118.7366  2.13102820 46984
COSMOS 2501 (702K)      
1 40315U 14075A   20180.22418907 -.00000010  00000-0  00000+0 0  9995
2 40315  63.8863 266.4269 0017153 207.0199 221.5596  2.13098785 43403
COSMOS 2514 (751)       
1 41330U 16008A   20179.37433606 -.00000043  00000-0  00000+0 0  9994
2 41330  65.5018  27.0550 0008271 206.1760 317.9251  2.13103063 34146
COSMOS 2516 (753)       
1 41554U 16032A   20180.06841657 -.00000010  00000-0  00000-0 0  9991
2 41554  64.1102 266.5054 0013680 216.3719  11.0286  2.13101782 31760
COSMOS 2522 (752)       
1 42939U 17055A   20179.94980243 -.00000009  00000-0  00000-0 0  9993
2 42939  64.3427 266.6913 0007927 240.4886 122.4866  2.13101923 21526
COSMOS 2527 (756)       
1 43508U 18053A   20179.55968436  .00000083  00000-0  00000-0 0  9993
2 43508  64.8620 146.9403 0009071 243.9595 211.5508  2.13102613 15804
COSMOS 2529 (757)       
1 43687U 18086A   20179.65446837 -.00000007  00000-0  00000-0 0  9991
2 43687  64.5577 266.8259 0009981 265.8937 186.1340  2.13102112 12828
COSMOS 2534 (758)       
1 44299U 19030A   20180.13589713 -.00000010  00000-0  00000-0 0  9991
2 44299  64.6266 266.6277 0012789 285.8619 310.5500  2.13102100  8475
COSMOS 2544 (759)       
1 44850U 19088A   20180.08591122  .00000081  00000-0  00000+0 0  9994
2 44850  64.8467 146.7888 0013853 269.0577 274.2342  2.13102379  4259
COSMOS 2545 (760)       
1 45358U 20018A   20180.33487913 -.00000045  00000-0  00000+0 0  9994
2 45358  64.8299  28.2252 0006855 251.2972 333.4134  2.13102969  2206
